[{"OBJECT_NAME":"LUSAT (LO-19)","OBJECT_ID":"1990-005G","EPOCH":"2026-03-09T14:54:14.260896","MEAN_MOTION":14.34087969,"ECCENTRICITY":0.001234,"INCLINATION":98.8938,"RA_OF_ASC_NODE":87.6461,"ARG_OF_PERICENTER":134.6824,"MEAN_ANOMALY":225.5367,"EPHEMERIS_TYPE":0,"CLASSIFICATION_TYPE":"U","NORAD_CAT_ID":20442,"ELEMENT_SET_NO":999,"REV_AT_EPOCH":88812,"BSTAR":8.4338e-5,"MEAN_MOTION_DOT":1.89e-6,"MEAN_MOTION_DDOT":0},{"OBJECT_NAME":"DMSP 5D-2 F11 DEB","OBJECT_ID":"1991-082BF","EPOCH":"2026-03-09T03:16:36.700896","MEAN_MOTION":14.3817991,"ECCENTRICITY":0.00644272,"INCLINATION":98.9634,"RA_OF_ASC_NODE":135.0389,"ARG_OF_PERICENTER":42.4398,"MEAN_ANOMALY":318.1744,"EPHEMERIS_TYPE":0,"CLASSIFICATION_TYPE":"U","NORAD_CAT_ID":28342,"ELEMENT_SET_NO":999,"REV_AT_EPOCH":12453,"BSTAR":0.0021886292,"MEAN_MOTION_DOT":6.764e-5,"MEAN_MOTION_DDOT":0}]
